{
  "type": "FeatureCollection",
  "features": [
    {
      "type": "Feature",
      "properties": {
        "norad_id": 30838,
        "name": "FENGYUN 1C DEB",
        "group": "fengyun-1c-debris",
        "lat": 6.9331514791369395,
        "lon": -85.99145489456042,
        "alt_km": 742.2741485112947,
        "timestamp": "2025-12-26T07:29:18.734663+00:00",
        "meta_object_name": "FENGYUN 1C DEB",
        "meta_object_id": "1999-025AVY",
        "meta_epoch": "2025-12-25T09:53:46.123296",
        "meta_mean_motion": 14.4794921,
        "meta_eccentricity": 0.0035281,
        "meta_inclination": 99.0425,
        "meta_ra_of_asc_node": 274.1565,
        "meta_arg_of_pericenter": 118.5629,
        "meta_mean_anomaly": 241.912,
        "meta_ephemeris_type": 0,
        "meta_classification_type": "U",
        "meta_norad_cat_id": 30838,
        "meta_element_set_no": 999,
        "meta_rev_at_epoch": 97497,
        "meta_bstar": 0.0025551,
        "meta_mean_motion_dot": 9.515e-05,
        "meta_mean_motion_ddot": 0,
        "tle_line1": "1 30838U 99025AVY 25359.41233939  .00009515  00000+0  25551-2 0  9994",
        "tle_line2": "2 30838  99.0425 274.1565 0035281 118.5629 241.9120 14.47949210974970"
      },
      "geometry": {
        "type": "Point",
        "coordinates": [
          -85.99145489456042,
          6.9331514791369395
        ]
      }
    },
    {
      "type": "Feature",
      "properties": {
        "norad_id": 30840,
        "name": "FENGYUN 1C DEB",
        "group": "fengyun-1c-debris",
        "lat": 62.673499469274816,
        "lon": -4.583794916486071,
        "alt_km": 695.4929974529086,
        "timestamp": "2025-12-26T07:29:18.734675+00:00",
        "meta_object_name": "FENGYUN 1C DEB",
        "meta_object_id": "1999-025AWA",
        "meta_epoch": "2025-12-24T23:58:42.884544",
        "meta_mean_motion": 14.61228441,
        "meta_eccentricity": 0.02164907,
        "meta_inclination": 98.0228,
        "meta_ra_of_asc_node": 9.982,
        "meta_arg_of_pericenter": 332.0644,
        "meta_mean_anomaly": 26.9068,
        "meta_ephemeris_type": 0,
        "meta_classification_type": "U",
        "meta_norad_cat_id": 30840,
        "meta_element_set_no": 999,
        "meta_rev_at_epoch": 73310,
        "meta_bstar": 0.00084757904,
        "meta_mean_motion_dot": 5.78e-05,
        "meta_mean_motion_ddot": 0,
        "tle_line1": "1 30840U 99025AWA 25358.99910746  .00005780  00000+0  84758-3 0  9992",
        "tle_line2": "2 30840  98.0228   9.9820 0216490 332.0644  26.9068 14.61228441733106"
      },
      "geometry": {
        "type": "Point",
        "coordinates": [
          -4.583794916486071,
          62.673499469274816
        ]
      }
    },
    {
      "type": "Feature",
      "properties": {
        "norad_id": 30843,
        "name": "FENGYUN 1C DEB",
        "group": "fengyun-1c-debris",
        "lat": -7.330412291065312,
        "lon": -108.48436903325488,
        "alt_km": 753.5342813453544,
        "timestamp": "2025-12-26T07:29:18.734686+00:00",
        "meta_object_name": "FENGYUN 1C DEB",
        "meta_object_id": "1999-025AWD",
        "meta_epoch": "2025-12-24T03:23:32.017920",
        "meta_mean_motion": 14.52491521,
        "meta_eccentricity": 0.01488463,
        "meta_inclination": 98.841,
        "meta_ra_of_asc_node": 70.3765,
        "meta_arg_of_pericenter": 85.3289,
        "meta_mean_anomaly": 276.4887,
        "meta_ephemeris_type": 0,
        "meta_classification_type": "U",
        "meta_norad_cat_id": 30843,
        "meta_element_set_no": 999,
        "meta_rev_at_epoch": 99490,
        "meta_bstar": 0.00012943843,
        "meta_mean_motion_dot": 5.54e-06,
        "meta_mean_motion_ddot": 0,
        "tle_line1": "1 30843U 99025AWD 25358.14134280  .00000554  00000+0  12944-3 0  9995",
        "tle_line2": "2 30843  98.8410  70.3765 0148846  85.3289 276.4887 14.52491521994901"
      },
      "geometry": {
        "type": "Point",
        "coordinates": [
          -108.48436903325488,
          -7.330412291065312
        ]
      }
    },
    {
      "type": "Feature",
      "properties": {
        "norad_id": 30845,
        "name": "FENGYUN 1C DEB",
        "group": "fengyun-1c-debris",
        "lat": 22.809904445580212,
        "lon": -4.264164778673579,
        "alt_km": 1095.649590353084,
        "timestamp": "2025-12-26T07:29:18.734696+00:00",
        "meta_object_name": "FENGYUN 1C DEB",
        "meta_object_id": "1999-025AWF",
        "meta_epoch": "2025-12-21T18:21:33.686208",
        "meta_mean_motion": 13.76864531,
        "meta_eccentricity": 0.01921106,
        "meta_inclination": 98.379,
        "meta_ra_of_asc_node": 355.2796,
        "meta_arg_of_pericenter": 245.9079,
        "meta_mean_anomaly": 290.0104,
        "meta_ephemeris_type": 0,
        "meta_classification_type": "U",
        "meta_norad_cat_id": 30845,
        "meta_element_set_no": 999,
        "meta_rev_at_epoch": 94367,
        "meta_bstar": 0.00027550575,
        "meta_mean_motion_dot": 2.73e-06,
        "meta_mean_motion_ddot": 0,
        "tle_line1": "1 30845U 99025AWF 25355.76497322  .00000273  00000+0  27551-3 0  9999",
        "tle_line2": "2 30845  98.3790 355.2796 0192110 245.9079 290.0104 13.76864531943674"
      },
      "geometry": {
        "type": "Point",
        "coordinates": [
          -4.264164778673579,
          22.809904445580212
        ]
      }
    },
    {
      "type": "Feature",
      "properties": {
        "norad_id": 30846,
        "name": "FENGYUN 1C DEB",
        "group": "fengyun-1c-debris",
        "lat": 21.82685837766037,
        "lon": -1.4750954554831976,
        "alt_km": 781.7327699821881,
        "timestamp": "2025-12-26T07:29:18.734706+00:00",
        "meta_object_name": "FENGYUN 1C DEB",
        "meta_object_id": "1999-025AWG",
        "meta_epoch": "2025-12-25T23:08:12.928128",
        "meta_mean_motion": 14.41606109,
        "meta_eccentricity": 0.00539019,
        "meta_inclination": 99.3213,
        "meta_ra_of_asc_node": 174.3737,
        "meta_arg_of_pericenter": 297.5542,
        "meta_mean_anomaly": 215.6715,
        "meta_ephemeris_type": 0,
        "meta_classification_type": "U",
        "meta_norad_cat_id": 30846,
        "meta_element_set_no": 999,
        "meta_rev_at_epoch": 98120,
        "meta_bstar": 0.00078221459,
        "meta_mean_motion_dot": 2.538e-05,
        "meta_mean_motion_ddot": 0,
        "tle_line1": "1 30846U 99025AWG 25359.96403852  .00002538  00000+0  78221-3 0  9997",
        "tle_line2": "2 30846  99.3213 174.3737 0053901 297.5542 215.6715 14.41606109981203"
      },
      "geometry": {
        "type": "Point",
        "coordinates": [
          -1.4750954554831976,
          21.82685837766037
        ]
      }
    },
    {
      "type": "Feature",
      "properties": {
        "norad_id": 30847,
        "name": "FENGYUN 1C DEB",
        "group": "fengyun-1c-debris",
        "lat": 64.9423908671041,
        "lon": -0.5838837294363994,
        "alt_km": 876.0616929589069,
        "timestamp": "2025-12-26T07:29:18.734718+00:00",
        "meta_object_name": "FENGYUN 1C DEB",
        "meta_object_id": "1999-025AWH",
        "meta_epoch": "2025-12-24T09:20:18.218400",
        "meta_mean_motion": 14.17103703,
        "meta_eccentricity": 0.00657959,
        "meta_inclination": 98.7321,
        "meta_ra_of_asc_node": 158.3361,
        "meta_arg_of_pericenter": 294.6027,
        "meta_mean_anomaly": 94.5153,
        "meta_ephemeris_type": 0,
        "meta_classification_type": "U",
        "meta_norad_cat_id": 30847,
        "meta_element_set_no": 999,
        "meta_rev_at_epoch": 96220,
        "meta_bstar": 0.0019856738,
        "meta_mean_motion_dot": 4.041e-05,
        "meta_mean_motion_ddot": 0,
        "tle_line1": "1 30847U 99025AWH 25358.38909975  .00004041  00000+0  19857-2 0  9990",
        "tle_line2": "2 30847  98.7321 158.3361 0065795 294.6027  94.5153 14.17103703962206"
      },
      "geometry": {
        "type": "Point",
        "coordinates": [
          -0.5838837294363994,
          64.9423908671041
        ]
      }
    },
    {
      "type": "Feature",
      "properties": {
        "norad_id": 30848,
        "name": "FENGYUN 1C DEB",
        "group": "fengyun-1c-debris",
        "lat": -13.276727949374122,
        "lon": -162.0388758983762,
        "alt_km": 761.0870479350415,
        "timestamp": "2025-12-26T07:29:18.734728+00:00",
        "meta_object_name": "FENGYUN 1C DEB",
        "meta_object_id": "1999-025AWJ",
        "meta_epoch": "2025-12-24T12:01:43.212576",
        "meta_mean_motion": 14.34555484,
        "meta_eccentricity": 0.00435565,
        "meta_inclination": 99.0594,
        "meta_ra_of_asc_node": 193.906,
        "meta_arg_of_pericenter": 301.431,
        "meta_mean_anomaly": 58.2618,
        "meta_ephemeris_type": 0,
        "meta_classification_type": "U",
        "meta_norad_cat_id": 30848,
        "meta_element_set_no": 999,
        "meta_rev_at_epoch": 97475,
        "meta_bstar": 0.0011922202,
        "meta_mean_motion_dot": 3.354e-05,
        "meta_mean_motion_ddot": 0,
        "tle_line1": "1 30848U 99025AWJ 25358.50119459  .00003354  00000+0  11922-2 0  9996",
        "tle_line2": "2 30848  99.0594 193.9060 0043556 301.4310  58.2618 14.34555484974759"
      },
      "geometry": {
        "type": "Point",
        "coordinates": [
          -162.0388758983762,
          -13.276727949374122
        ]
      }
    }
  ]
}